CCSDS_OMM_VERS = 2.0
CREATION_DATE  = 
ORIGINATOR     = 

OBJECT_NAME    = GSLV R/B
OBJECT_ID      = 2022-138AN
CENTER_NAME    = EARTH
REF_FRAME      = TEME
TIME_SYSTEM    = UTC
MEAN_ELEMENT_THEORY = SGP/SGP4

EPOCH          = 2026-03-02T20:01:46.000416
MEAN_MOTION    = 14.96713300
ECCENTRICITY   = .0021989
INCLINATION    = 87.3885
RA_OF_ASC_NODE = 168.6561
ARG_OF_PERICENTER = 170.5085
MEAN_ANOMALY   = 189.6567

EPHEMERIS_TYPE = 0
CLASSIFICATION_TYPE = U
NORAD_CAT_ID   = 54149
ELEMENT_SET_NO = 999
REV_AT_EPOCH   = 18290
BSTAR          = .40842E-3
MEAN_MOTION_DOT = .4713E-4
MEAN_MOTION_DDOT = 0

CCSDS_OMM_VERS = 2.0
CREATION_DATE  = 
ORIGINATOR     = 

OBJECT_NAME    = XRISM
OBJECT_ID      = 2023-137A
CENTER_NAME    = EARTH
REF_FRAME      = TEME
TIME_SYSTEM    = UTC
MEAN_ELEMENT_THEORY = SGP/SGP4

EPOCH          = 2026-03-03T02:27:56.678112
MEAN_MOTION    = 15.11407310
ECCENTRICITY   = .0008204
INCLINATION    = 31.0033
RA_OF_ASC_NODE = 326.2655
ARG_OF_PERICENTER = 332.0919
MEAN_ANOMALY   = 27.9278

EPHEMERIS_TYPE = 0
CLASSIFICATION_TYPE = U
NORAD_CAT_ID   = 57800
ELEMENT_SET_NO = 999
REV_AT_EPOCH   = 13679
BSTAR          = .41646E-3
MEAN_MOTION_DOT = .7313E-4
MEAN_MOTION_DDOT = 0

CCSDS_OMM_VERS = 2.0
CREATION_DATE  = 
ORIGINATOR     = 

OBJECT_NAME    = ACS3
OBJECT_ID      = 2024-077B
CENTER_NAME    = EARTH
REF_FRAME      = TEME
TIME_SYSTEM    = UTC
MEAN_ELEMENT_THEORY = SGP/SGP4

EPOCH          = 2026-03-02T19:13:04.744704
MEAN_MOTION    = 13.89236949
ECCENTRICITY   = .005469
INCLINATION    = 97.2115
RA_OF_ASC_NODE = 4.4612
ARG_OF_PERICENTER = 95.3082
MEAN_ANOMALY   = 265.4325

EPHEMERIS_TYPE = 0
CLASSIFICATION_TYPE = U
NORAD_CAT_ID   = 59588
ELEMENT_SET_NO = 999
REV_AT_EPOCH   = 9324
BSTAR          = .15165E-1
MEAN_MOTION_DOT = .18685E-3
MEAN_MOTION_DDOT = 0

CCSDS_OMM_VERS = 2.0
CREATION_DATE  = 
ORIGINATOR     = 

OBJECT_NAME    = SZ-21 MODULE
OBJECT_ID      = 2025-246C
CENTER_NAME    = EARTH
REF_FRAME      = TEME
TIME_SYSTEM    = UTC
MEAN_ELEMENT_THEORY = SGP/SGP4

EPOCH          = 2026-03-02T13:24:56.678976
MEAN_MOTION    = 15.67907744
ECCENTRICITY   = .0001469
INCLINATION    = 41.4734
RA_OF_ASC_NODE = 247.2373
ARG_OF_PERICENTER = 286.7563
MEAN_ANOMALY   = 73.3117

EPHEMERIS_TYPE = 0
CLASSIFICATION_TYPE = U
NORAD_CAT_ID   = 66515
ELEMENT_SET_NO = 999
REV_AT_EPOCH   = 1695
BSTAR          = .34908E-3
MEAN_MOTION_DOT = .39531E-3
MEAN_MOTION_DDOT = 0

